ORBCOMM FM20 [+]        
1 25416U 98046D   23260.26759459  .00001306  00000+0  50951-3 0  9997
2 25416  44.9962 319.6993 0002495 246.6758 113.3827 14.34385867312440
ORBCOMM FM16 [-]        
1 25417U 98046E   23260.50037481  .00001723  00000+0  64782-3 0  9999
2 25417  44.9961 315.8551 0004744 299.9374  60.1001 14.35049458312393
ORBCOMM FM15 [-]        
1 25418U 98046F   23260.48478924  .00001656  00000+0  62764-3 0  9991
2 25418  44.9993 319.4691 0004153 298.8723  61.1707 14.34816387312402
ORBCOMM FM14 [-]        
1 25419U 98046G   23260.27420236  .00001845  00000+0  69198-3 0  9990
2 25419  44.9984 319.8318 0003685 279.9119 191.7558 14.34916129312321
ORBCOMM FM13 [+]        
1 25420U 98046H   23260.47540816  .00001358  00000+0  52763-3 0  9990
2 25420  44.9997 322.6171 0005597 292.7012  67.3243 14.34400617311435
ORBCOMM FM21 [-]        
1 25475U 98053A   23260.49359337  .00001702  00000+0  64874-3 0  9995
2 25475  45.0100  46.6137 0001149 207.5630 152.5156 14.34425800305453
ORBCOMM FM22 [-]        
1 25476U 98053B   23260.40298544  .00001912  00000+0  71735-3 0  9996
2 25476  45.0100  45.1168 0002659 236.2327 123.8267 14.34774430305428
ORBCOMM FM23 [-]        
1 25477U 98053C   23259.89597280  .00001495  00000+0  57609-3 0  9997
2 25477  45.0100  51.8663 0001929 227.2600 132.8084 14.34397408305519
